STARLINK-5179           
1 54102U 22136BD  25212.58002542 -.00000181  00000+0  67130-5 0  9996
2 54102  53.2165 246.7397 0000978  77.8203 282.2899 15.08840968153609
STARLINK-5200           
1 54103U 22136BE  25212.41994024 -.00000472  00000+0 -11613-4 0  9992
2 54103  53.2162 227.2257 0000846 101.6111 258.4976 15.08827375154333
STARLINK-5203           
1 54104U 22136BF  25212.26487336  .00000853  00000+0  71672-4 0  9991
2 54104  53.2156 212.6898 0001206  84.8409 275.2721 15.08840239154057
STARLINK-5290           
1 54157U 22141A   25212.48530859 -.00000508  00000+0 -13867-4 0  9999
2 54157  53.2161 287.0991 0000960  73.1655 286.9442 15.08822405152323
STARLINK-5297           
1 54158U 22141B   25212.50276345 -.00000734  00000+0 -28043-4 0  9993
2 54158  53.2180 287.2044 0001200  89.3269 270.7861 15.08839539152326
STARLINK-5294           
1 54159U 22141C   25212.49908259 -.00000415  00000+0 -80058-5 0  9999
2 54159  53.2174 287.1864 0001102  91.6310 268.4808 15.08836385152324
STARLINK-5233           
1 54160U 22141D   25212.54552151  .00000709  00000+0  62589-4 0  9995
2 54160  53.2162 241.8456 0001008  82.9309 277.1798 15.08842316152969
STARLINK-5269           
1 54161U 22141E   25212.83124059 -.00000674  00000+0 -24255-4 0  9991
2 54161  53.2179 285.7000 0001153  86.2184 273.8940 15.08837945152378
STARLINK-5273           
1 54162U 22141F   25212.49171328 -.00000751  00000+0 -29107-4 0  9992
2 54162  53.2188 287.1354 0001244  90.6843 269.4291 15.08836911152326
STARLINK-5161           
1 54163U 22141G   25212.50369146 -.00000497  00000+0 -13135-4 0  9993
2 54163  53.2170 277.2350 0001064  81.6776 278.4337 15.08838369152464
STARLINK-5278           
1 54164U 22141H   25212.50737467 -.00000245  00000+0  26981-5 0  9993
2 54164  53.2175 277.2580 0001190  82.6973 277.4154 15.08838718152469
STARLINK-5279           
1 54165U 22141J   25212.48802588 -.00001086  00000+0 -50151-4 0  9998
2 54165  53.2174 287.1110 0001174  89.1049 271.0077 15.08836612152326
STARLINK-5280           
1 54166U 22141K   25212.43376683 -.00000197  00000+0  56895-5 0  9999
2 54166  53.2177 277.5101 0001047  86.2412 273.8700 15.08838587152454
STARLINK-5243           
1 54167U 22141L   25212.46959888 -.00000067  00000+0  13868-4 0  9995
2 54167  53.2178 286.9979 0001208  86.2197 273.8933 15.08843442152322
STARLINK-5245           
1 54168U 22141M   25212.49632039 -.00000289  00000+0 -73096-7 0  9994
2 54168  53.2176 277.1906 0001165  87.8857 272.2269 15.08838034152466
STARLINK-5282           
1 54169U 22141N   25212.44472924 -.00000140  00000+0  93037-5 0  9995
2 54169  53.2169 276.8778 0001123  87.7509 272.3612 15.08841537152464
STARLINK-5155           
1 54170U 22141P   25212.49263828 -.00000920  00000+0 -39727-4 0  9995
2 54170  53.2171 277.1674 0001132  79.3437 280.7683 15.08835221152469
