[{"OBJECT_NAME":"STARLINK-5179","OBJECT_ID":"2022-136BD","EPOCH":"2025-07-31T13:55:14.196288","MEAN_MOTION":15.08840968,"ECCENTRICITY":9.78e-5,"INCLINATION":53.2165,"RA_OF_ASC_NODE":246.7397,"ARG_OF_PERICENTER":77.8203,"MEAN_ANOMALY":282.2899,"EPHEMERIS_TYPE":0,"CLASSIFICATION_TYPE":"U","NORAD_CAT_ID":54102,"ELEMENT_SET_NO":999,"REV_AT_EPOCH":15360,"BSTAR":6.713e-6,"MEAN_MOTION_DOT":-1.81e-6,"MEAN_MOTION_DDOT":0},{"OBJECT_NAME":"STARLINK-5200","OBJECT_ID":"2022-136BE","EPOCH":"2025-07-31T10:04:42.836736","MEAN_MOTION":15.08827375,"ECCENTRICITY":8.46e-5,"INCLINATION":53.2162,"RA_OF_ASC_NODE":227.2257,"ARG_OF_PERICENTER":101.6111,"MEAN_ANOMALY":258.4976,"EPHEMERIS_TYPE":0,"CLASSIFICATION_TYPE":"U","NORAD_CAT_ID":54103,"ELEMENT_SET_NO":999,"REV_AT_EPOCH":15433,"BSTAR":-1.1613e-5,"MEAN_MOTION_DOT":-4.72e-6,"MEAN_MOTION_DDOT":0},{"OBJECT_NAME":"STARLINK-5203","OBJECT_ID":"2022-136BF","EPOCH":"2025-07-31T06:21:25.058304","MEAN_MOTION":15.08840239,"ECCENTRICITY":0.0001206,"INCLINATION":53.2156,"RA_OF_ASC_NODE":212.6898,"ARG_OF_PERICENTER":84.8409,"MEAN_ANOMALY":275.2721,"EPHEMERIS_TYPE":0,"CLASSIFICATION_TYPE":"U","NORAD_CAT_ID":54104,"ELEMENT_SET_NO":999,"REV_AT_EPOCH":15405,"BSTAR":7.1672e-5,"MEAN_MOTION_DOT":8.53e-6,"MEAN_MOTION_DDOT":0},{"OBJECT_NAME":"STARLINK-5290","OBJECT_ID":"2022-141A","EPOCH":"2025-07-31T11:38:50.662176","MEAN_MOTION":15.08822405,"ECCENTRICITY":9.6e-5,"INCLINATION":53.2161,"RA_OF_ASC_NODE":287.0991,"ARG_OF_PERICENTER":73.1655,"MEAN_ANOMALY":286.9442,"EPHEMERIS_TYPE":0,"CLASSIFICATION_TYPE":"U","NORAD_CAT_ID":54157,"ELEMENT_SET_NO":999,"REV_AT_EPOCH":15232,"BSTAR":-1.3867e-5,"MEAN_MOTION_DOT":-5.08e-6,"MEAN_MOTION_DDOT":0},{"OBJECT_NAME":"STARLINK-5297","OBJECT_ID":"2022-141B","EPOCH":"2025-07-31T12:03:58.762080","MEAN_MOTION":15.08839539,"ECCENTRICITY":0.00012,"INCLINATION":53.218,"RA_OF_ASC_NODE":287.2044,"ARG_OF_PERICENTER":89.3269,"MEAN_ANOMALY":270.7861,"EPHEMERIS_TYPE":0,"CLASSIFICATION_TYPE":"U","NORAD_CAT_ID":54158,"ELEMENT_SET_NO":999,"REV_AT_EPOCH":15232,"BSTAR":-2.8043e-5,"MEAN_MOTION_DOT":-7.34e-6,"MEAN_MOTION_DDOT":0},{"OBJECT_NAME":"STARLINK-5294","OBJECT_ID":"2022-141C","EPOCH":"2025-07-31T11:58:40.735776","MEAN_MOTION":15.08836385,"ECCENTRICITY":0.0001102,"INCLINATION":53.2174,"RA_OF_ASC_NODE":287.1864,"ARG_OF_PERICENTER":91.631,"MEAN_ANOMALY":268.4808,"EPHEMERIS_TYPE":0,"CLASSIFICATION_TYPE":"U","NORAD_CAT_ID":54159,"ELEMENT_SET_NO":999,"REV_AT_EPOCH":15232,"BSTAR":-8.0058e-6,"MEAN_MOTION_DOT":-4.15e-6,"MEAN_MOTION_DDOT":0},{"OBJECT_NAME":"STARLINK-5233","OBJECT_ID":"2022-141D","EPOCH":"2025-07-31T13:05:33.058464","MEAN_MOTION":15.08842316,"ECCENTRICITY":0.0001008,"INCLINATION":53.2162,"RA_OF_ASC_NODE":241.8456,"ARG_OF_PERICENTER":82.9309,"MEAN_ANOMALY":277.1798,"EPHEMERIS_TYPE":0,"CLASSIFICATION_TYPE":"U","NORAD_CAT_ID":54160,"ELEMENT_SET_NO":999,"REV_AT_EPOCH":15296,"BSTAR":6.2589e-5,"MEAN_MOTION_DOT":7.09e-6,"MEAN_MOTION_DDOT":0},{"OBJECT_NAME":"STARLINK-5269","OBJECT_ID":"2022-141E","EPOCH":"2025-07-31T19:56:59.186976","MEAN_MOTION":15.08837945,"ECCENTRICITY":0.0001153,"INCLINATION":53.2179,"RA_OF_ASC_NODE":285.7,"ARG_OF_PERICENTER":86.2184,"MEAN_ANOMALY":273.894,"EPHEMERIS_TYPE":0,"CLASSIFICATION_TYPE":"U","NORAD_CAT_ID":54161,"ELEMENT_SET_NO":999,"REV_AT_EPOCH":15237,"BSTAR":-2.4255e-5,"MEAN_MOTION_DOT":-6.74e-6,"MEAN_MOTION_DDOT":0},{"OBJECT_NAME":"STARLINK-5273","OBJECT_ID":"2022-141F","EPOCH":"2025-07-31T11:48:04.027392","MEAN_MOTION":15.08836911,"ECCENTRICITY":0.0001244,"INCLINATION":53.2188,"RA_OF_ASC_NODE":287.1354,"ARG_OF_PERICENTER":90.6843,"MEAN_ANOMALY":269.4291,"EPHEMERIS_TYPE":0,"CLASSIFICATION_TYPE":"U","NORAD_CAT_ID":54162,"ELEMENT_SET_NO":999,"REV_AT_EPOCH":15232,"BSTAR":-2.9107e-5,"MEAN_MOTION_DOT":-7.51e-6,"MEAN_MOTION_DDOT":0},{"OBJECT_NAME":"STARLINK-5161","OBJECT_ID":"2022-141G","EPOCH":"2025-07-31T12:05:18.942144","MEAN_MOTION":15.08838369,"ECCENTRICITY":0.0001064,"INCLINATION":53.217,"RA_OF_ASC_NODE":277.235,"ARG_OF_PERICENTER":81.6776,"MEAN_ANOMALY":278.4337,"EPHEMERIS_TYPE":0,"CLASSIFICATION_TYPE":"U","NORAD_CAT_ID":54163,"ELEMENT_SET_NO":999,"REV_AT_EPOCH":15246,"BSTAR":-1.3135e-5,"MEAN_MOTION_DOT":-4.97e-6,"MEAN_MOTION_DDOT":0},{"OBJECT_NAME":"STARLINK-5278","OBJECT_ID":"2022-141H","EPOCH":"2025-07-31T12:10:37.171488","MEAN_MOTION":15.08838718,"ECCENTRICITY":0.000119,"INCLINATION":53.2175,"RA_OF_ASC_NODE":277.258,"ARG_OF_PERICENTER":82.6973,"MEAN_ANOMALY":277.4154,"EPHEMERIS_TYPE":0,"CLASSIFICATION_TYPE":"U","NORAD_CAT_ID":54164,"ELEMENT_SET_NO":999,"REV_AT_EPOCH":15246,"BSTAR":2.6981e-6,"MEAN_MOTION_DOT":-2.45e-6,"MEAN_MOTION_DDOT":0},{"OBJECT_NAME":"STARLINK-5279","OBJECT_ID":"2022-141J","EPOCH":"2025-07-31T11:42:45.436032","MEAN_MOTION":15.08836612,"ECCENTRICITY":0.0001174,"INCLINATION":53.2174,"RA_OF_ASC_NODE":287.111,"ARG_OF_PERICENTER":89.1049,"MEAN_ANOMALY":271.0077,"EPHEMERIS_TYPE":0,"CLASSIFICATION_TYPE":"U","NORAD_CAT_ID":54165,"ELEMENT_SET_NO":999,"REV_AT_EPOCH":15232,"BSTAR":-5.0151e-5,"MEAN_MOTION_DOT":-1.086e-5,"MEAN_MOTION_DDOT":0},{"OBJECT_NAME":"STARLINK-5280","OBJECT_ID":"2022-141K","EPOCH":"2025-07-31T10:24:37.454112","MEAN_MOTION":15.08838587,"ECCENTRICITY":0.0001047,"INCLINATION":53.2177,"RA_OF_ASC_NODE":277.5101,"ARG_OF_PERICENTER":86.2412,"MEAN_ANOMALY":273.87,"EPHEMERIS_TYPE":0,"CLASSIFICATION_TYPE":"U","NORAD_CAT_ID":54166,"ELEMENT_SET_NO":999,"REV_AT_EPOCH":15245,"BSTAR":5.6895e-6,"MEAN_MOTION_DOT":-1.97e-6,"MEAN_MOTION_DDOT":0},{"OBJECT_NAME":"STARLINK-5243","OBJECT_ID":"2022-141L","EPOCH":"2025-07-31T11:16:13.343232","MEAN_MOTION":15.08843442,"ECCENTRICITY":0.0001208,"INCLINATION":53.2178,"RA_OF_ASC_NODE":286.9979,"ARG_OF_PERICENTER":86.2197,"MEAN_ANOMALY":273.8933,"EPHEMERIS_TYPE":0,"CLASSIFICATION_TYPE":"U","NORAD_CAT_ID":54167,"ELEMENT_SET_NO":999,"REV_AT_EPOCH":15232,"BSTAR":1.3868e-5,"MEAN_MOTION_DOT":-6.7e-7,"MEAN_MOTION_DDOT":0},{"OBJECT_NAME":"STARLINK-5245","OBJECT_ID":"2022-141M","EPOCH":"2025-07-31T11:54:42.081696","MEAN_MOTION":15.08838034,"ECCENTRICITY":0.0001165,"INCLINATION":53.2176,"RA_OF_ASC_NODE":277.1906,"ARG_OF_PERICENTER":87.8857,"MEAN_ANOMALY":272.2269,"EPHEMERIS_TYPE":0,"CLASSIFICATION_TYPE":"U","NORAD_CAT_ID":54168,"ELEMENT_SET_NO":999,"REV_AT_EPOCH":15246,"BSTAR":-7.3096e-8,"MEAN_MOTION_DOT":-2.89e-6,"MEAN_MOTION_DDOT":0},{"OBJECT_NAME":"STARLINK-5282","OBJECT_ID":"2022-141N","EPOCH":"2025-07-31T10:40:24.606336","MEAN_MOTION":15.08841537,"ECCENTRICITY":0.0001123,"INCLINATION":53.2169,"RA_OF_ASC_NODE":276.8778,"ARG_OF_PERICENTER":87.7509,"MEAN_ANOMALY":272.3612,"EPHEMERIS_TYPE":0,"CLASSIFICATION_TYPE":"U","NORAD_CAT_ID":54169,"ELEMENT_SET_NO":999,"REV_AT_EPOCH":15246,"BSTAR":9.3037e-6,"MEAN_MOTION_DOT":-1.4e-6,"MEAN_MOTION_DDOT":0},{"OBJECT_NAME":"STARLINK-5155","OBJECT_ID":"2022-141P","EPOCH":"2025-07-31T11:49:23.947392","MEAN_MOTION":15.08835221,"ECCENTRICITY":0.0001132,"INCLINATION":53.2171,"RA_OF_ASC_NODE":277.1674,"ARG_OF_PERICENTER":79.3437,"MEAN_ANOMALY":280.7683,"EPHEMERIS_TYPE":0,"CLASSIFICATION_TYPE":"U","NORAD_CAT_ID":54170,"ELEMENT_SET_NO":999,"REV_AT_EPOCH":15246,"BSTAR":-3.9727e-5,"MEAN_MOTION_DOT":-9.2e-6,"MEAN_MOTION_DDOT":0}]
